OBJECT_NAME,OBJECT_ID,EPOCH,MEAN_MOTION,ECCENTRICITY,INCLINATION,RA_OF_ASC_NODE,ARG_OF_PERICENTER,MEAN_ANOMALY,EPHEMERIS_TYPE,CLASSIFICATION_TYPE,NORAD_CAT_ID,ELEMENT_SET_NO,REV_AT_EPOCH,BSTAR,MEAN_MOTION_DOT,MEAN_MOTION_DDOT
FENGYUN 1C DEB,1999-025HR,2026-06-12T03:27:59.121792,13.85216037,.01372009,98.5078,305.5786,206.5239,332.1258,0,U,29919,999,98046,.14945575E-3,.144E-5,0
FENGYUN 1C DEB,1999-025HS,2026-06-09T20:24:50.009184,14.04229901,.01256874,98.3800,6.6742,132.5734,228.6123,0,U,29920,999,98801,.10308135E-2,.1718E-4,0
FENGYUN 1C DEB,1999-025HT,2026-06-12T07:15:04.148640,14.06869633,.00439724,98.7849,169.2572,279.0021,96.7411,0,U,29921,999,99429,.38138623E-3,.598E-5,0
FENGYUN 1C DEB,1999-025HU,2026-06-12T02:34:54.762528,13.98686125,.00919899,99.1088,224.5963,227.9177,131.4137,0,U,29922,999,98976,.28720616E-3,.383E-5,0
FENGYUN 1C DEB,1999-025HV,2026-06-12T06:53:27.021120,14.14238599,.00177871,98.6841,171.5432,19.0843,0.6466,0,U,29923,999,99841,.41288009E-3,.746E-5,0
FENGYUN 1C DEB,1999-025HW,2026-06-09T18:59:30.804864,14.08940406,.0028013,98.7262,173.1746,111.0846,61.7768,0,U,29924,999,99729,.11209E-3,.152E-5,0
FENGYUN 1C DEB,1999-025HY,2026-06-12T19:08:57.155136,14.33795923,.0249137,98.2981,150.3566,116.5406,4.5349,0,U,29926,999,1188,.21287E-3,.791E-5,0
FENGYUN 1C DEB,1999-025HZ,2026-06-12T03:09:45.355680,14.81633039,.00143486,99.0683,214.9472,11.5239,47.5899,0,U,29927,999,1326,.20659387E-2,.16246E-3,0
FENGYUN 1C DEB,1999-025JA,2026-06-10T20:19:43.721184,13.88363037,.01415001,99.5639,195.8127,344.2341,191.9072,0,U,29928,999,97990,.35317471E-3,.411E-5,0
FENGYUN 1C DEB,1999-025JB,2026-06-12T00:44:53.350656,14.02204452,.01339676,98.6291,77.5608,29.8612,346.2802,0,U,29929,999,98496,.10866059E-2,.1759E-4,0
FENGYUN 1C DEB,1999-025JC,2026-06-12T05:49:49.349856,14.21033769,.01621673,99.0243,54.6171,254.5727,229.9471,0,U,29930,999,467,.13453357E-3,.284E-5,0
FENGYUN 1C DEB,1999-025JD,2026-06-12T01:44:35.778048,14.03994279,.00306137,98.8346,198.5925,308.3845,106.4725,0,U,29931,999,99357,-.8778703E-5,-.57E-6,0
FENGYUN 1C DEB,1999-025JE,2026-06-12T07:11:16.502784,14.16987288,.00359786,98.6282,173.6541,268.1259,107.6638,0,U,29932,999,100,.22199798E-3,.406E-5,0
FENGYUN 1C DEB,1999-025JF,2026-06-12T01:02:00.798720,14.72910130,.00078352,98.7502,284.1066,138.4075,274.9711,0,U,29933,999,1167,.22503981E-2,.14401E-3,0
FENGYUN 1C DEB,1999-025JG,2026-06-12T04:20:40.222176,14.65389297,.01000412,98.8793,229.5506,54.5614,306.4877,0,U,29934,999,2425,.59382801E-3,.3396E-4,0
FENGYUN 1C DEB,1999-025JH,2026-06-12T18:28:00.232032,14.14320750,.0151486,98.4324,221.1636,53.1515,65.0129,0,U,29935,999,115,.68338E-4,.106E-5,0
FENGYUN 1C DEB,1999-025JJ,2026-06-12T20:22:52.120704,14.35492730,.0113763,98.6725,282.9720,9.2750,351.0500,0,U,29936,999,1544,.83208E-4,.21E-5,0
FENGYUN 1C DEB,1999-025JK,2026-06-12T21:13:29.231904,14.04393412,.0031183,98.7866,184.1876,228.4023,253.3113,0,U,29937,999,99492,.14329E-4,-.2E-6,0
FENGYUN 1C DEB,1999-025JL,2026-06-11T21:54:54.482112,14.07556182,.00339115,98.8150,153.4504,157.8259,262.9637,0,U,29938,999,99605,.21270463E-3,.318E-5,0
FENGYUN 1C DEB,1999-025JM,2026-06-12T21:15:24.454944,14.12126736,.0065887,98.7143,163.3861,342.2777,82.6019,0,U,29939,999,29,.48854E-4,.48E-6,0
FENGYUN 1C DEB,1999-025JN,2026-06-12T00:45:11.117952,14.19272419,.00720708,98.6162,172.7865,297.7057,125.2609,0,U,29940,999,36,.39204872E-3,.8E-5,0
FENGYUN 1C DEB,1999-025JQ,2026-06-12T02:29:57.191424,14.31038447,.00507681,98.6162,232.5125,103.8675,256.8163,0,U,29942,999,461,.44499808E-3,.1145E-4,0
FENGYUN 1C DEB,1999-025JR,2026-06-12T20:36:37.181088,14.09707242,.0036739,98.7236,171.0755,73.1477,47.1139,0,U,29943,999,99872,.25535E-5,-.38E-6,0
FENGYUN 1C DEB,1999-025JS,2026-06-12T20:19:08.482080,14.91578056,.0157105,99.0216,128.2513,11.3085,349.1594,0,U,29944,999,3165,.1228E-2,.15575E-3,0
FENGYUN 1C DEB,1999-025JT,2026-06-12T20:35:40.043904,14.05645093,.0030336,98.7742,186.9098,207.2888,326.5617,0,U,29945,999,99536,.14709E-4,-.19E-6,0
FENGYUN 1C DEB,1999-025JU,2026-06-12T20:18:16.157376,14.08410025,.008022,98.7906,156.3838,188.2908,292.3466,0,U,29946,999,99610,.19315E-3,.298E-5,0
FENGYUN 1C DEB,1999-025JV,2026-06-12T21:13:38.177760,14.03187595,.0039103,98.8148,193.9658,333.7579,152.9683,0,U,29947,999,99304,.26037E-3,.365E-5,0
FENGYUN 1C DEB,1999-025JW,2026-06-12T04:51:22.247712,14.06280711,.00856578,98.8398,150.0092,84.7823,291.4965,0,U,29948,999,99527,.73290141E-4,.82E-6,0
FENGYUN 1C DEB,1999-025JX,2026-06-12T20:47:19.153824,14.06857420,.0024679,98.7514,178.8061,149.1525,333.0463,0,U,29949,999,99668,.68889E-4,.73E-6,0
FENGYUN 1C DEB,1999-025JY,2026-06-12T01:47:43.709280,14.10413581,.00343531,98.7178,193.8984,89.2965,325.9571,0,U,29950,999,99847,.7855115E-4,.98E-6,0
FENGYUN 1C DEB,1999-025KB,2026-06-11T22:09:53.098272,13.91008382,.0107027,98.9527,148.2338,131.7590,283.9489,0,U,29953,999,98381,.20096261E-3,.223E-5,0
FENGYUN 1C DEB,1999-025KC,2026-06-12T04:29:04.486272,14.35058770,.00750641,100.1314,237.5402,118.5528,242.3234,0,U,29954,999,786,.78113529E-3,.2243E-4,0
FENGYUN 1C DEB,1999-025KD,2026-06-12T19:38:02.918976,14.39838123,.0008571,99.2687,264.0527,94.5031,23.9336,0,U,29955,999,677,.13347E-2,.4143E-4,0
FENGYUN 1C DEB,1999-025KE,2026-06-12T01:46:22.266048,14.06214207,.00526141,98.7697,191.4898,226.0418,194.0070,0,U,29956,999,99598,.74128434E-4,.81E-6,0
FENGYUN 1C DEB,1999-025KF,2026-06-11T23:07:07.479264,14.57510270,.00307612,98.9206,306.9067,348.0947,140.7364,0,U,29957,999,97,.24361497E-2,.11109E-3,0
FENGYUN 1C DEB,1999-025KG,2026-06-12T20:03:17.461728,14.14640032,.0054918,98.6591,177.8443,170.2480,189.9773,0,U,29958,999,19,.15047E-3,.251E-5,0
FENGYUN 1C DEB,1999-025KH,2026-06-12T20:02:57.499872,14.06121163,.0042396,98.7852,194.3136,174.3345,0.9284,0,U,29959,999,99499,.30112E-3,.456E-5,0
FENGYUN 1C DEB,1999-025KJ,2026-06-12T05:14:34.619136,14.16717249,.00925087,98.6303,148.2257,124.1755,256.2515,0,U,29960,999,19,.32003073E-3,.625E-5,0
FENGYUN 1C DEB,1999-025KK,2026-06-12T04:58:02.860320,14.26367714,.00752586,98.9304,59.3480,138.9728,221.7146,0,U,29961,999,896,.12068508E-3,.253E-5,0
FENGYUN 1C DEB,1999-025KL,2026-06-12T21:03:46.107072,14.07278211,.0111424,98.7648,171.6566,68.8369,49.1056,0,U,29962,999,99559,.10861E-3,.151E-5,0
FENGYUN 1C DEB,1999-025KM,2026-06-11T22:25:10.320672,14.30002163,.00513498,98.9833,57.7363,133.7282,358.2124,0,U,29963,999,729,.44386887E-3,.1115E-4,0
FENGYUN 1C DEB,1999-025KN,2026-06-12T19:32:27.629952,14.03275286,.0132022,98.3669,356.8138,113.7438,247.7642,0,U,29964,999,98870,.97569E-3,.1607E-4,0
FENGYUN 1C DEB,1999-025KP,2026-06-12T05:22:51.027744,13.95876463,.01440226,98.9716,158.1333,289.4415,81.0513,0,U,29965,999,98808,.49394718E-4,.29E-6,0
FENGYUN 1C DEB,1999-025KQ,2026-06-12T05:05:04.036128,14.26068525,.00389214,99.4745,29.9950,187.6507,172.4081,0,U,29966,999,629,.26356417E-3,.584E-5,0
FENGYUN 1C DEB,1999-025KR,2026-06-12T00:08:00.276864,14.24805858,.00773997,98.8561,246.0820,130.3756,47.3635,0,U,29967,999,99802,.11364349E-2,.269E-4,0
FENGYUN 1C DEB,1999-025KS,2026-06-12T05:59:08.064960,14.07377413,.00893877,98.8175,153.5309,202.8161,173.0337,0,U,29968,999,99602,.18751111E-3,.284E-5,0
FENGYUN 1C DEB,1999-025KT,2026-06-12T04:50:16.048896,14.34915232,.00421732,98.7648,255.0168,230.4144,192.2199,0,U,29969,999,244,.13438835E-2,.3815E-4,0
FENGYUN 1C DEB,1999-025KU,2026-06-12T19:49:34.093056,14.44634217,.0090764,98.8215,103.7733,4.9607,54.1532,0,U,29970,999,1749,.45766E-3,.1616E-4,0
FENGYUN 1C DEB,1999-025KV,2026-06-12T02:57:58.472352,14.18769306,.00222869,98.6585,203.8159,11.1530,55.6623,0,U,29971,999,99911,.52501026E-3,.105E-4,0
FENGYUN 1C DEB,1999-025KW,2026-06-12T20:43:08.825376,14.68614995,.0062765,98.9064,196.9825,166.8496,12.0777,0,U,29972,999,2155,.86657E-3,.5131E-4,0
FENGYUN 1C DEB,1999-025KX,2026-06-12T06:46:35.897088,14.06958727,.0058708,98.8453,164.7775,1.6785,14.0610,0,U,29973,999,99271,.53185837E-3,.858E-5,0
FENGYUN 1C DEB,1999-025KY,2026-06-12T05:13:23.475648,14.15615944,.00446985,98.8861,251.7602,284.6099,130.3659,0,U,29974,999,99492,.76932907E-3,.1476E-4,0
FENGYUN 1C DEB,1999-025KZ,2026-06-12T02:07:54.607008,13.98110614,.01125091,99.3125,212.0594,238.6394,186.6430,0,U,29975,999,98971,.1888969E-3,.237E-5,0
FENGYUN 1C DEB,1999-025LA,2026-06-12T05:47:11.427936,13.98316282,.02687085,98.9259,160.8249,97.7172,286.2102,0,U,29976,999,98873,.14186511E-4,-.14E-6,0
FENGYUN 1C DEB,1999-025LB,2026-06-12T20:10:17.723424,14.05711702,.0128893,98.3827,17.4922,98.9467,28.9974,0,U,29977,999,98918,.93487E-3,.1605E-4,0
FENGYUN 1C DEB,1999-025LC,2026-06-12T02:39:30.254976,13.95966492,.00750069,99.0320,215.3247,274.7318,139.2474,0,U,29978,999,98847,-.27078739E-4,-.82E-6,0
FENGYUN 1C DEB,1999-025LD,2026-06-12T01:20:13.104672,14.26366024,.01062837,98.3541,183.1360,351.1220,66.0845,0,U,29979,999,658,.31176407E-3,.753E-5,0
FENGYUN 1C DEB,1999-025LE,2026-06-12T06:50:28.154976,14.06430415,.00888069,98.5722,327.7045,94.4328,26.8581,0,U,29980,999,99544,.13447591E-3,.19E-5,0
FENGYUN 1C DEB,1999-025LG,2026-06-12T20:39:52.267968,14.68227391,.0120768,99.3960,16.9327,93.0606,282.5381,0,U,29982,999,2955,.54112E-3,.3413E-4,0
FENGYUN 1C DEB,1999-025LK,2026-06-12T20:25:38.254080,14.10359819,.0029545,98.7003,178.1580,55.9055,66.9334,0,U,29985,999,99915,.85118E-4,.109E-5,0
FENGYUN 1C DEB,1999-025LL,2026-06-12T19:23:25.000800,14.30594513,.0024227,99.3877,250.6775,189.1694,295.1205,0,U,29986,999,83,.14229E-2,.3677E-4,0
FENGYUN 1C DEB,1999-025LM,2026-06-11T17:07:12.657216,14.16023006,.00818169,98.8925,59.2596,76.2259,351.9555,0,U,29987,999,98933,.16514344E-2,.3323E-4,0
FENGYUN 1C DEB,1999-025LN,2026-06-12T19:05:07.984320,14.53470921,.0115692,98.7015,279.1813,184.2452,307.6491,0,U,29988,999,706,.20598E-2,.9337E-4,0
FENGYUN 1C DEB,1999-025LP,2026-06-12T20:35:01.824000,14.15962152,.0124178,98.6877,143.0108,34.8346,25.4517,0,U,29989,999,184,.16048E-3,.298E-5,0
